ONEWEB-0306             
1 49188U 21083C   23279.41898045 -.00000021  00000+0 -87121-4 0  9993
2 49188  87.9217 171.3328 0001906  83.8669 276.2680 13.18688844100235
ONEWEB-0307             
1 49189U 21083D   23279.56411544  .00000186  00000+0  47521-3 0  9994
2 49189  87.9044 156.1582 0001705  74.3997 285.7320 13.13473939101670
ONEWEB-0320             
1 49190U 21083E   23279.42530011 -.00000024  00000+0 -94641-4 0  9991
2 49190  87.9221 171.3556 0001750  72.0141 288.1182 13.18684444100194
ONEWEB-0321             
1 49191U 21083F   23279.81771386  .00000055  00000+0  10344-3 0  9996
2 49191  87.9145 110.4268 0002034  81.4366 278.6998 13.20773980108175
ONEWEB-0322             
1 49192U 21083G   23279.55989030  .00000211  00000+0  54257-3 0  9990
2 49192  87.9044 156.1481 0001942  57.7097 302.4220 13.13472985101666
ONEWEB-0324             
1 49193U 21083H   23279.71404725 -.00000086  00000+0 -25042-3 0  9994
2 49193  87.9217 171.2776 0001467  85.3387 274.7913 13.18688044101531
ONEWEB-0325             
1 49194U 21083J   23279.79414441  .00000005  00000+0 -21209-4 0  9991
2 49194  87.9406 171.2140 0001848  74.3820 285.7516 13.18691340101556
ONEWEB-0326             
1 49195U 21083K   23279.73301621 -.00000005  00000+0 -45836-4 0  9994
2 49195  87.9218 171.2643 0001392  95.3172 264.8119 13.18686936101533
